OBJECT_NAME,OBJECT_ID,EPOCH,MEAN_MOTION,ECCENTRICITY,INCLINATION,RA_OF_ASC_NODE,ARG_OF_PERICENTER,MEAN_ANOMALY,EPHEMERIS_TYPE,CLASSIFICATION_TYPE,NORAD_CAT_ID,ELEMENT_SET_NO,REV_AT_EPOCH,BSTAR,MEAN_MOTION_DOT,MEAN_MOTION_DDOT
GAOFEN-11 01,2018-063A,2026-07-17T08:09:52.769376,15.56107398,.0003437,97.1270,265.1493,189.1766,170.9427,0,U,43585,999,44503,.11689698E-3,.8063E-4,0
ICESAT-2,2018-070A,2026-07-17T06:36:56.353536,15.28198805,.00054406,92.0093,299.1103,54.2668,305.9087,0,U,43613,999,43705,.18205992E-3,.5004E-4,0
HYSIS,2018-096A,2026-07-17T06:10:16.171104,14.78670281,.00017774,97.9827,264.7670,82.0409,278.1004,0,U,43719,999,41186,-.13812059E-4,-.153E-5,0
KAZSTSAT,2018-099AB,2026-07-17T01:13:47.750304,14.99957094,.00072811,97.4316,228.6342,333.4317,26.6533,0,U,43783,999,41578,.26033114E-4,.268E-5,0
SAUDISAT 5A,2018-102A,2026-07-17T06:50:25.363392,15.28333129,.00102421,97.3048,259.2887,37.1546,323.0401,0,U,43831,999,42027,.10701148E-3,.2883E-4,0
SAUDISAT 5B,2018-102C,2026-07-17T07:10:29.573760,15.28575510,.00110285,97.3158,262.4267,38.4490,321.7534,0,U,43833,999,42039,.98897452E-4,.2679E-4,0
GAOFEN-10R,2019-066A,2026-07-17T07:30:31.682016,14.83059664,.00067665,98.0510,152.1137,47.2991,312.8791,0,U,44622,999,36684,.7221475E-4,.533E-5,0
CARTOSAT-3,2019-081A,2026-07-17T07:44:51.474336,15.19190512,.00128509,97.4288,259.7022,52.1802,308.0594,0,U,44804,999,36804,.64808304E-4,.1298E-4,0
GAOFEN-12 01,2019-082A,2026-07-17T06:59:25.702080,14.80480367,.00008685,97.8110,203.8774,57.5936,302.5361,0,U,44819,999,35854,.25090172E-4,.141E-5,0
CSG-1,2019-092A,2026-07-17T07:06:21.623904,14.82157903,.00014363,97.8897,21.4639,93.5603,266.5774,0,U,44873,999,35593,.317349E-4,.2E-5,0
NEMO-HD,2020-061F,2026-07-17T05:58:05.880288,15.45164455,.00010095,97.1898,259.9072,103.0513,257.0849,0,U,46277,999,32662,.13072729E-3,.611E-4,0
SENTINEL-6A,2020-086A,2026-07-17T01:35:57.866208,12.80930174,.00077771,66.0412,72.9935,269.7294,90.2830,0,U,46984,999,26415,.84160892E-4,-.42E-6,0
CAS500-1,2021-022A,2026-07-17T06:38:14.962848,15.20144145,.00054032,97.3861,92.9151,163.9305,196.2103,0,U,47932,999,29533,.13937576E-3,.2947E-4,0
GAOFEN-12 02,2021-026A,2026-07-17T05:42:41.249088,14.80316841,.00059445,97.9936,196.2979,126.8014,233.3744,0,U,48079,999,28620,.24159385E-4,.131E-5,0
PLEIADES NEO 3,2021-034A,2026-07-17T07:19:20.369568,14.81671176,.00013722,97.8942,272.6385,96.1850,263.9519,0,U,48268,999,28211,.10430711E-3,.769E-5,0
PLEIADES NEO 4,2021-073E,2026-07-17T08:07:56.906976,14.81672621,.00013264,97.8941,272.6678,93.4771,266.6594,0,U,49070,999,26583,-.10755374E-4,-.137E-5,0
LANDSAT 9,2021-088A,2026-07-17T04:55:37.198560,14.57096328,.00011176,98.2269,268.0173,89.7332,270.3994,0,U,49260,999,25537,.44379798E-4,.154E-5,0
CSG-2,2022-008A,2026-07-17T07:54:56.611296,14.82149705,.00015135,97.8887,21.4904,87.9882,272.1504,0,U,51444,999,24105,.7466754E-5,.7E-7,0
GAOFEN-12 03,2022-069A,2026-07-17T06:33:09.111168,14.80078187,.00024276,97.8240,85.3799,69.2803,290.8669,0,U,52912,999,21906,.62438404E-4,.422E-5,0
SWOT,2022-173A,2026-07-17T06:50:09.979008,14.00172456,.00002345,77.6112,354.6769,70.4479,289.6698,0,U,54754,999,18336,-.22455541E-4,-.36E-6,0
GAOFEN-12 04,2023-123A,2026-07-17T07:02:07.355616,14.79777384,.00034097,97.9099,115.8605,46.0514,314.0979,0,U,57654,999,15708,.65526735E-4,.441E-5,0
PARS 1,2024-039Q,2026-07-17T06:45:27.757728,15.46317776,.00095153,97.4843,180.1660,20.1289,340.0334,0,U,59065,999,13329,.13733355E-3,.6687E-4,0
RESURS-P 4,2024-061A,2026-07-17T07:18:31.487904,15.32287073,.0003232,97.2760,145.6838,86.4517,273.7095,0,U,59371,999,12837,.52664707E-4,.1566E-4,0
LEGION 1,2024-081A,2026-07-17T05:51:29.998080,15.16851364,.00077542,97.5010,275.7824,261.1571,98.8784,0,U,59625,999,12209,.9399319E-4,.1783E-4,0
LEGION 2,2024-081B,2026-07-17T05:00:18.204192,15.16830386,.00103622,97.5011,275.8439,225.7910,134.2473,0,U,59626,999,12209,.97557422E-4,.1852E-4,0
ALOS-4 (DAICHI-4),2024-123A,2026-07-17T06:07:24.633408,14.79473231,.0001546,97.9221,294.9995,97.5278,262.6109,0,U,60182,999,11032,.99943436E-4,.695E-5,0
LEGION 3,2024-146A,2026-07-17T05:57:00.101376,15.15662038,.00080129,45.0016,229.3857,345.1677,14.8965,0,U,60452,999,10658,.77362002E-4,.1233E-4,0
LEGION 4,2024-146B,2026-07-17T05:56:34.742976,15.15689311,.00090375,45.0027,321.2547,126.4805,233.6908,0,U,60453,999,10543,.94736387E-4,.157E-4,0
SENTINEL-2C,2024-157A,2026-07-17T04:08:29.287680,14.30816028,.00009962,98.5684,272.5288,104.2844,255.8450,0,U,60989,999,9727,.35920395E-4,.51E-6,0
IONOSFERA-M 1,2024-199A,2026-07-17T05:20:59.121600,14.22759395,.00021319,98.7132,71.0725,70.0787,290.0621,0,U,61735,999,13197,.26395222E-4,.15E-6,0
