GAOFEN-11 01            
1 43585U 18063A   26198.34019409  .00008063  00000+0  11690-3 0  9995
2 43585  97.1270 265.1493 0003437 189.1766 170.9427 15.56107398445039
ICESAT-2                
1 43613U 18070A   26198.27565224  .00005004  00000+0  18206-3 0  9990
2 43613  92.0093 299.1103 0005440  54.2668 305.9087 15.28198805437059
HYSIS                   
1 43719U 18096A   26198.25713161 -.00000153  00000+0 -13812-4 0  9999
2 43719  97.9827 264.7670 0001777  82.0409 278.1004 14.78670281411861
KAZSTSAT                
1 43783U 18099AB  26198.05124711  .00000268  00000+0  26033-4 0  9992
2 43783  97.4316 228.6342 0007281 333.4317  26.6533 14.99957094415783
SAUDISAT 5A             
1 43831U 18102A   26198.28501578  .00002883  00000+0  10701-3 0  9995
2 43831  97.3048 259.2887 0010242  37.1546 323.0401 15.28333129420273
SAUDISAT 5B             
1 43833U 18102C   26198.29895340  .00002679  00000+0  98897-4 0  9997
2 43833  97.3158 262.4267 0011028  38.4490 321.7534 15.28575510420397
GAOFEN-10R              
1 44622U 19066A   26198.31286669  .00000533  00000+0  72215-4 0  9998
2 44622  98.0510 152.1137 0006766  47.2991 312.8791 14.83059664366844
CARTOSAT-3              
1 44804U 19081A   26198.32281799  .00001298  00000+0  64808-4 0  9995
2 44804  97.4288 259.7022 0012850  52.1802 308.0594 15.19190512368045
GAOFEN-12 01            
1 44819U 19082A   26198.29126970  .00000141  00000+0  25090-4 0  9993
2 44819  97.8110 203.8774 0000868  57.5936 302.5361 14.80480367358548
CSG-1                   
1 44873U 19092A   26198.29608361  .00000200  00000+0  31735-4 0  9992
2 44873  97.8897  21.4639 0001436  93.5603 266.5774 14.82157903355933
NEMO-HD                 
1 46277U 20061F   26198.24867917  .00006110  00000+0  13073-3 0  9999
2 46277  97.1898 259.9072 0001009 103.0513 257.0849 15.45164455326621
SENTINEL-6A             
1 46984U 20086A   26198.06664197 -.00000042  00000+0  84161-4 0  9992
2 46984  66.0412  72.9935 0007777 269.7294  90.2830 12.80930174264159
CAS500-1                
1 47932U 21022A   26198.27656207  .00002947  00000+0  13938-3 0  9991
2 47932  97.3861  92.9151 0005403 163.9305 196.2103 15.20144145295338
GAOFEN-12 02            
1 48079U 21026A   26198.23797742  .00000131  00000+0  24159-4 0  9995
2 48079  97.9936 196.2979 0005944 126.8014 233.3744 14.80316841286200
PLEIADES NEO 3          
1 48268U 21034A   26198.30509687  .00000769  00000+0  10431-3 0  9995
2 48268  97.8942 272.6385 0001372  96.1850 263.9519 14.81671176282115
PLEIADES NEO 4          
1 49070U 21073E   26198.33885309 -.00000137  00000+0 -10755-4 0  9992
2 49070  97.8941 272.6678 0001326  93.4771 266.6594 14.81672621265831
LANDSAT 9               
1 49260U 21088A   26198.20529165  .00000154  00000+0  44380-4 0  9998
2 49260  98.2269 268.0173 0001117  89.7332 270.3994 14.57096328255379
CSG-2                   
1 51444U 22008A   26198.32982189  .00000007  00000+0  74668-5 0  9990
2 51444  97.8887  21.4904 0001513  87.9882 272.1504 14.82149705241053
GAOFEN-12 03            
1 52912U 22069A   26198.27302212  .00000422  00000+0  62438-4 0  9997
2 52912  97.8240  85.3799 0002427  69.2803 290.8669 14.80078187219067
SWOT                    
1 54754U 22173A   26198.28483772 -.00000036  00000+0 -22456-4 0  9990
2 54754  77.6112 354.6769 0000234  70.4479 289.6698 14.00172456183360
GAOFEN-12 04            
1 57654U 23123A   26198.29314069  .00000441  00000+0  65527-4 0  9995
2 57654  97.9099 115.8605 0003409  46.0514 314.0979 14.79777384157085
PARS 1                  
1 59065U 24039Q   26198.28157127  .00006687  00000+0  13733-3 0  9998
2 59065  97.4843 180.1660 0009515  20.1289 340.0334 15.46317776133298
RESURS-P 4              
1 59371U 24061A   26198.30453111  .00001566  00000+0  52665-4 0  9997
2 59371  97.2760 145.6838 0003232  86.4517 273.7095 15.32287073128376
LEGION 1                
1 59625U 24081A   26198.24409720  .00001783  00000+0  93993-4 0  9991
2 59625  97.5010 275.7824 0007754 261.1571  98.8784 15.16851364122090
LEGION 2                
1 59626U 24081B   26198.20854403  .00001852  00000+0  97557-4 0  9997
2 59626  97.5011 275.8439 0010362 225.7910 134.2473 15.16830386122098
ALOS-4 (DAICHI-4)       
1 60182U 24123A   26198.25514622  .00000695  00000+0  99943-4 0  9999
2 60182  97.9221 294.9995 0001546  97.5278 262.6109 14.79473231110324
LEGION 3                
1 60452U 24146A   26198.24791784  .00001233  00000+0  77362-4 0  9999
2 60452  45.0016 229.3857 0008012 345.1677  14.8965 15.15662038106585
LEGION 4                
1 60453U 24146B   26198.24762434  .00001570  00000+0  94736-4 0  9998
2 60453  45.0027 321.2547 0009037 126.4805 233.6908 15.15689311105431
SENTINEL-2C             
1 60989U 24157A   26198.17256120  .00000051  00000+0  35920-4 0  9999
2 60989  98.5684 272.5288 0000996 104.2844 255.8450 14.30816028 97272
IONOSFERA-M 1           
1 61735U 24199A   26198.22290650  .00000015  00000+0  26395-4 0  9993
2 61735  98.7132  71.0725 0002131  70.0787 290.0621 14.22759395131970
